COSMOS 1933             
1 18958U 88020A   26047.10130968  .00004633  00000+0  22783-3 0  9996
2 18958  82.5111 272.2732 0002629 282.6239  77.4701 15.17790144 46956
SL-3 R/B                
1 19046U 88032B   26047.13648114  .00006260  00000+0  29473-3 0  9999
2 19046  97.5153  30.4738 0024638 312.3420  47.5728 15.19629089 48831
SL-16 R/B               
1 19120U 88039B   26046.64362692  .00000173  00000+0  10430-3 0  9998
2 19120  71.0143 115.1677 0021399   7.7370 352.4081 14.19613075955253
COSMOS 1953             
1 19210U 88050A   26046.82266487  .00011047  00000+0  40145-3 0  9994
2 19210  82.5098 180.2260 0011040 196.4682 163.6201 15.28088930 34446
SL-8 R/B                
1 19257U 88053B   26046.76717963  .00000242  00000+0  87088-4 0  9994
2 19257  74.0485 152.8719 0020709 336.0110 142.6368 14.38902323973441
COSMOS 1975             
1 19573U 88093A   26047.17784326  .00009654  00000+0  35498-3 0  9995
2 19573  82.5225 139.2686 0010447 242.5337 117.4840 15.27698396 16129
SL-14 R/B               
1 19574U 88093B   26047.10963221  .00000509  00000+0  55722-4 0  9995
2 19574  82.5278  62.3072 0022260 108.2863 314.0440 14.85630675997837
SL-16 R/B               
1 19650U 88102B   26046.79617689  .00000162  00000+0  10587-3 0  9993
2 19650  70.9989 197.5588 0012783  36.7851 323.4147 14.16151350923790
INTERCOSMOS 24          
1 20261U 89080A   26047.19815587  .00000581  00000+0  16960-3 0  9997
2 20261  82.6055 118.3951 1187569 342.7408  13.6338 12.59526283664094
SL-14 R/B               
1 20262U 89080C   26046.79069829  .00000521  00000+0  15698-3 0  9994
2 20262  82.5955 187.2425 1229624 234.8164 113.1677 12.50465097657419
DELTA 1 R/B             
1 20323U 89089B   26047.16908107  .00000381  00000+0  10301-3 0  9994
2 20323  97.0721 258.0284 0068805 189.5122 170.4778 14.50645006892613
ARIANE 40 R/B           
1 20443U 90005H   26047.13219669  .00000292  00000+0  10644-3 0  9993
2 20443  98.3132 108.4307 0008876 268.7574  91.2597 14.39855833889706
