CCSDS_OMM_VERS = 2.0
CREATION_DATE  = 
ORIGINATOR     = 

OBJECT_NAME    = COSMOS 1933
OBJECT_ID      = 1988-020A
CENTER_NAME    = EARTH
REF_FRAME      = TEME
TIME_SYSTEM    = UTC
MEAN_ELEMENT_THEORY = SGP/SGP4

EPOCH          = 2026-02-16T02:25:53.156352
MEAN_MOTION    = 15.17790144
ECCENTRICITY   = .0002629
INCLINATION    = 82.5111
RA_OF_ASC_NODE = 272.2732
ARG_OF_PERICENTER = 282.6239
MEAN_ANOMALY   = 77.4701

EPHEMERIS_TYPE = 0
CLASSIFICATION_TYPE = U
NORAD_CAT_ID   = 18958
ELEMENT_SET_NO = 999
REV_AT_EPOCH   = 4695
BSTAR          = .22783E-3
MEAN_MOTION_DOT = .4633E-4
MEAN_MOTION_DDOT = 0

CCSDS_OMM_VERS = 2.0
CREATION_DATE  = 
ORIGINATOR     = 

OBJECT_NAME    = SL-3 R/B
OBJECT_ID      = 1988-032B
CENTER_NAME    = EARTH
REF_FRAME      = TEME
TIME_SYSTEM    = UTC
MEAN_ELEMENT_THEORY = SGP/SGP4

EPOCH          = 2026-02-16T03:16:31.970496
MEAN_MOTION    = 15.19629089
ECCENTRICITY   = .0024638
INCLINATION    = 97.5153
RA_OF_ASC_NODE = 30.4738
ARG_OF_PERICENTER = 312.3420
MEAN_ANOMALY   = 47.5728

EPHEMERIS_TYPE = 0
CLASSIFICATION_TYPE = U
NORAD_CAT_ID   = 19046
ELEMENT_SET_NO = 999
REV_AT_EPOCH   = 4883
BSTAR          = .29473E-3
MEAN_MOTION_DOT = .626E-4
MEAN_MOTION_DDOT = 0

CCSDS_OMM_VERS = 2.0
CREATION_DATE  = 
ORIGINATOR     = 

OBJECT_NAME    = SL-16 R/B
OBJECT_ID      = 1988-039B
CENTER_NAME    = EARTH
REF_FRAME      = TEME
TIME_SYSTEM    = UTC
MEAN_ELEMENT_THEORY = SGP/SGP4

EPOCH          = 2026-02-15T15:26:49.365888
MEAN_MOTION    = 14.19613075
ECCENTRICITY   = .00213999
INCLINATION    = 71.0143
RA_OF_ASC_NODE = 115.1677
ARG_OF_PERICENTER = 7.7370
MEAN_ANOMALY   = 352.4081

EPHEMERIS_TYPE = 0
CLASSIFICATION_TYPE = U
NORAD_CAT_ID   = 19120
ELEMENT_SET_NO = 999
REV_AT_EPOCH   = 95525
BSTAR          = .10430497E-3
MEAN_MOTION_DOT = .173E-5
MEAN_MOTION_DDOT = 0

CCSDS_OMM_VERS = 2.0
CREATION_DATE  = 
ORIGINATOR     = 

OBJECT_NAME    = COSMOS 1953
OBJECT_ID      = 1988-050A
CENTER_NAME    = EARTH
REF_FRAME      = TEME
TIME_SYSTEM    = UTC
MEAN_ELEMENT_THEORY = SGP/SGP4

EPOCH          = 2026-02-15T19:44:38.244768
MEAN_MOTION    = 15.28088930
ECCENTRICITY   = .001104
INCLINATION    = 82.5098
RA_OF_ASC_NODE = 180.2260
ARG_OF_PERICENTER = 196.4682
MEAN_ANOMALY   = 163.6201

EPHEMERIS_TYPE = 0
CLASSIFICATION_TYPE = U
NORAD_CAT_ID   = 19210
ELEMENT_SET_NO = 999
REV_AT_EPOCH   = 3444
BSTAR          = .4014506E-3
MEAN_MOTION_DOT = .11047E-3
MEAN_MOTION_DDOT = 0

CCSDS_OMM_VERS = 2.0
CREATION_DATE  = 
ORIGINATOR     = 

OBJECT_NAME    = SL-8 R/B
OBJECT_ID      = 1988-053B
CENTER_NAME    = EARTH
REF_FRAME      = TEME
TIME_SYSTEM    = UTC
MEAN_ELEMENT_THEORY = SGP/SGP4

EPOCH          = 2026-02-15T18:24:44.320032
MEAN_MOTION    = 14.38902323
ECCENTRICITY   = .00207096
INCLINATION    = 74.0485
RA_OF_ASC_NODE = 152.8719
ARG_OF_PERICENTER = 336.0110
MEAN_ANOMALY   = 142.6368

EPHEMERIS_TYPE = 0
CLASSIFICATION_TYPE = U
NORAD_CAT_ID   = 19257
ELEMENT_SET_NO = 999
REV_AT_EPOCH   = 97344
BSTAR          = .87088285E-4
MEAN_MOTION_DOT = .242E-5
MEAN_MOTION_DDOT = 0

CCSDS_OMM_VERS = 2.0
CREATION_DATE  = 
ORIGINATOR     = 

OBJECT_NAME    = COSMOS 1975
OBJECT_ID      = 1988-093A
CENTER_NAME    = EARTH
REF_FRAME      = TEME
TIME_SYSTEM    = UTC
MEAN_ELEMENT_THEORY = SGP/SGP4

EPOCH          = 2026-02-16T04:16:05.657664
MEAN_MOTION    = 15.27698396
ECCENTRICITY   = .0010447
INCLINATION    = 82.5225
RA_OF_ASC_NODE = 139.2686
ARG_OF_PERICENTER = 242.5337
MEAN_ANOMALY   = 117.4840

EPHEMERIS_TYPE = 0
CLASSIFICATION_TYPE = U
NORAD_CAT_ID   = 19573
ELEMENT_SET_NO = 999
REV_AT_EPOCH   = 1612
BSTAR          = .35498E-3
MEAN_MOTION_DOT = .9654E-4
MEAN_MOTION_DDOT = 0

CCSDS_OMM_VERS = 2.0
CREATION_DATE  = 
ORIGINATOR     = 

OBJECT_NAME    = SL-14 R/B
OBJECT_ID      = 1988-093B
CENTER_NAME    = EARTH
REF_FRAME      = TEME
TIME_SYSTEM    = UTC
MEAN_ELEMENT_THEORY = SGP/SGP4

EPOCH          = 2026-02-16T02:37:52.222944
MEAN_MOTION    = 14.85630675
ECCENTRICITY   = .002226
INCLINATION    = 82.5278
RA_OF_ASC_NODE = 62.3072
ARG_OF_PERICENTER = 108.2863
MEAN_ANOMALY   = 314.0440

EPHEMERIS_TYPE = 0
CLASSIFICATION_TYPE = U
NORAD_CAT_ID   = 19574
ELEMENT_SET_NO = 999
REV_AT_EPOCH   = 99783
BSTAR          = .55722E-4
MEAN_MOTION_DOT = .509E-5
MEAN_MOTION_DDOT = 0

CCSDS_OMM_VERS = 2.0
CREATION_DATE  = 
ORIGINATOR     = 

OBJECT_NAME    = SL-16 R/B
OBJECT_ID      = 1988-102B
CENTER_NAME    = EARTH
REF_FRAME      = TEME
TIME_SYSTEM    = UTC
MEAN_ELEMENT_THEORY = SGP/SGP4

EPOCH          = 2026-02-15T19:06:29.683296
MEAN_MOTION    = 14.16151350
ECCENTRICITY   = .00127834
INCLINATION    = 70.9989
RA_OF_ASC_NODE = 197.5588
ARG_OF_PERICENTER = 36.7851
MEAN_ANOMALY   = 323.4147

EPHEMERIS_TYPE = 0
CLASSIFICATION_TYPE = U
NORAD_CAT_ID   = 19650
ELEMENT_SET_NO = 999
REV_AT_EPOCH   = 92379
BSTAR          = .10587363E-3
MEAN_MOTION_DOT = .162E-5
MEAN_MOTION_DDOT = 0

CCSDS_OMM_VERS = 2.0
CREATION_DATE  = 
ORIGINATOR     = 

OBJECT_NAME    = INTERCOSMOS 24
OBJECT_ID      = 1989-080A
CENTER_NAME    = EARTH
REF_FRAME      = TEME
TIME_SYSTEM    = UTC
MEAN_ELEMENT_THEORY = SGP/SGP4

EPOCH          = 2026-02-16T04:45:20.667168
MEAN_MOTION    = 12.59526283
ECCENTRICITY   = .1187569
INCLINATION    = 82.6055
RA_OF_ASC_NODE = 118.3951
ARG_OF_PERICENTER = 342.7408
MEAN_ANOMALY   = 13.6338

EPHEMERIS_TYPE = 0
CLASSIFICATION_TYPE = U
NORAD_CAT_ID   = 20261
ELEMENT_SET_NO = 999
REV_AT_EPOCH   = 66409
BSTAR          = .1696E-3
MEAN_MOTION_DOT = .581E-5
MEAN_MOTION_DDOT = 0

CCSDS_OMM_VERS = 2.0
CREATION_DATE  = 
ORIGINATOR     = 

OBJECT_NAME    = SL-14 R/B
OBJECT_ID      = 1989-080C
CENTER_NAME    = EARTH
REF_FRAME      = TEME
TIME_SYSTEM    = UTC
MEAN_ELEMENT_THEORY = SGP/SGP4

EPOCH          = 2026-02-15T18:58:36.332256
MEAN_MOTION    = 12.50465097
ECCENTRICITY   = .12296246
INCLINATION    = 82.5955
RA_OF_ASC_NODE = 187.2425
ARG_OF_PERICENTER = 234.8164
MEAN_ANOMALY   = 113.1677

EPHEMERIS_TYPE = 0
CLASSIFICATION_TYPE = U
NORAD_CAT_ID   = 20262
ELEMENT_SET_NO = 999
REV_AT_EPOCH   = 65741
BSTAR          = .15698074E-3
MEAN_MOTION_DOT = .521E-5
MEAN_MOTION_DDOT = 0

CCSDS_OMM_VERS = 2.0
CREATION_DATE  = 
ORIGINATOR     = 

OBJECT_NAME    = DELTA 1 R/B
OBJECT_ID      = 1989-089B
CENTER_NAME    = EARTH
REF_FRAME      = TEME
TIME_SYSTEM    = UTC
MEAN_ELEMENT_THEORY = SGP/SGP4

EPOCH          = 2026-02-16T04:03:28.604448
MEAN_MOTION    = 14.50645006
ECCENTRICITY   = .0068805
INCLINATION    = 97.0721
RA_OF_ASC_NODE = 258.0284
ARG_OF_PERICENTER = 189.5122
MEAN_ANOMALY   = 170.4778

EPHEMERIS_TYPE = 0
CLASSIFICATION_TYPE = U
NORAD_CAT_ID   = 20323
ELEMENT_SET_NO = 999
REV_AT_EPOCH   = 89261
BSTAR          = .10301E-3
MEAN_MOTION_DOT = .381E-5
MEAN_MOTION_DDOT = 0

CCSDS_OMM_VERS = 2.0
CREATION_DATE  = 
ORIGINATOR     = 

OBJECT_NAME    = ARIANE 40 R/B
OBJECT_ID      = 1990-005H
CENTER_NAME    = EARTH
REF_FRAME      = TEME
TIME_SYSTEM    = UTC
MEAN_ELEMENT_THEORY = SGP/SGP4

EPOCH          = 2026-02-16T03:10:21.794016
MEAN_MOTION    = 14.39855833
ECCENTRICITY   = .0008876
INCLINATION    = 98.3132
RA_OF_ASC_NODE = 108.4307
ARG_OF_PERICENTER = 268.7574
MEAN_ANOMALY   = 91.2597

EPHEMERIS_TYPE = 0
CLASSIFICATION_TYPE = U
NORAD_CAT_ID   = 20443
ELEMENT_SET_NO = 999
REV_AT_EPOCH   = 88970
BSTAR          = .10644E-3
MEAN_MOTION_DOT = .292E-5
MEAN_MOTION_DDOT = 0

